{
"type": "FeatureCollection",
"name": "koramangala_boundary",
"crs": { "type": "name", "properties": { "name": "urn:ogc:def:crs:EPSG::32643" } },
"features": [
{"type":"Feature","properties":{"fid":1,"id":null,"Name":"186-Koramangala","description":null,"timestamp":null,"begin":null,"end":null,"altitudeMode":null,"tessellate":1,"extrude":0,"visibility":-1,"drawOrder":null,"icon":null,"TownCode":"2003","WardCode":"2003186","WardID":5247,"WardName":"Koramangala","WardNo":"186","LGD_WardCode":"1302858","OBJECTID":21294},"geometry":{"type":"Polygon","coordinates":[[[785074.808818790828809,1431607.003373800544068,0.0],[785023.002195848850533,1431659.995968939503655,0.0],[785025.434317166218534,1431662.124303457560018,0.0],[784991.753385765710846,1431704.254986453102902,0.0],[784974.375214397441596,1431725.873861949425191,0.0],[784933.057786514167674,1431783.125630628550425,0.0],[784929.873582744039595,1431787.620669838739559,0.0],[784911.121691368753091,1431831.996995010878891,0.0],[784908.948684505186975,1431836.358505567535758,0.0],[784887.003041992895305,1431880.8791615862865,0.0],[784878.122040063142776,1431898.755005819490179,0.0],[784860.129760860232636,1431944.246163198258728,0.0],[784887.375184798263945,1431975.755152955884114,0.0],[784910.644533025100827,1431995.820971367880702,0.0],[784925.606852100463584,1432001.1333879083395,0.0],[784967.810788102215156,1432016.113228638190776,0.0],[785022.741401273757219,1432035.231341548962519,0.0],[785027.412256136303768,1432036.109603979159147,0.0],[785036.813368797302246,1432037.368579235626385,0.0],[785033.477560822037049,1432042.880512730451301,0.0],[785026.717272362904623,1432054.080593507736921,0.0],[785024.840386396506801,1432063.437833596719429,0.0],[785022.599216231610626,1432106.135005975840613,0.0],[785021.850199538399465,1432117.740030798828229,0.0],[785014.08156728092581,1432121.401961255585775,0.0],[784990.001312310108915,1432132.722985802683979,0.0],[784948.247809032676741,1432152.131961900275201,0.0],[784947.287731817923486,1432152.575980373425409,0.0],[784938.527544450946152,1432161.862509913742542,0.0],[784922.462303604232147,1432295.636684393277392,0.0],[784883.480333370622247,1432356.034163918113336,0.0],[784915.999946348834783,1432378.254149546613917,0.0],[784879.065937003353611,1432432.727918480988592,0.0],[784840.059478116221726,1432490.246885493164882,0.0],[784811.66995197464712,1432532.133003829512745,0.0],[784800.997745333705097,1432547.876011421671137,0.0],[784790.104037334909663,1432567.214581202715635,0.0],[784702.205565605079755,1432614.069068423705176,0.0],[784690.49235723586753,1432636.033965105889365,0.0],[784682.689316740725189,1432644.123699094867334,0.0],[784689.929062206298113,1432655.998921319609508,0.0],[784693.083312381757423,1432671.330399595433846,0.0],[784690.62276354781352,1432696.301772251026705,0.0],[784689.459133957512677,1432708.112857209751382,0.0],[784679.581533867865801,1432745.882780715590343,0.0],[784676.815524768899195,1432750.902416859054938,0.0],[784667.178267556591891,1432768.438382742227986,0.0],[784641.453547388548031,1432791.942103479756042,0.0],[784626.690296511631459,1432806.414341969182715,0.0],[784605.289990440243855,1432823.287118013715371,0.0],[784591.29419202147983,1432838.099354103673249,0.0],[784569.892278627958149,1432863.595854067476466,0.0],[784554.203749087522738,1432881.47932466538623,0.0],[784527.149856842588633,1432917.080315709346905,0.0],[784505.126940953428857,1432940.677457375451922,0.0],[784503.247215547598898,1432941.864822779316455,0.0],[784493.844194329809397,1432952.46217771503143,0.0],[784481.358291847631335,1432976.743925649905577,0.0],[784474.521620869636536,1432982.729189155157655,0.0],[784462.786779232090339,1432986.726898823166266,0.0],[784438.035733500029892,1432993.679651246871799,0.0],[784416.975042760837823,1433006.050420250976458,0.0],[784415.806998149026185,1433015.127099415985867,0.0],[784417.561538876034319,1433024.023430076427758,0.0],[784345.440261041396298,1433068.881825936259702,0.0],[784327.3142329598777,1433036.5036726067774,0.0],[784318.044584902701899,1433020.345695259980857,0.0],[784291.440683974185959,1432973.998567163012922,0.0],[784287.557664745487273,1432967.250190060120076,0.0],[784287.52577596635092,1432967.18344169203192,0.0],[784282.554489423520863,1432957.501366405747831,0.0],[784269.398012721328996,1432931.783167513553053,0.0],[784269.312748712487519,1432931.627310086973011,0.0],[784262.255087742581964,1432917.872146306093782,0.0],[784224.283323351643048,1432843.943356202915311,0.0],[784205.12179246568121,1432806.62848534877412,0.0],[784193.380156561266631,1432783.747762814396992,0.0],[784192.62396839086432,1432782.311953909229487,0.0],[784191.81474476470612,1432780.753829050809145,0.0],[784170.846352647291496,1432740.686138723511249,0.0],[784139.878313143271953,1432681.497381139080971,0.0],[784121.311777101131156,1432642.251429622527212,0.0],[784115.18827482976485,1432629.502226946642622,0.0],[784111.125877072568983,1432615.877458323026076,0.0],[784110.74851018213667,1432611.379087716108188,0.0],[784117.313504250254482,1432597.996051560388878,0.0],[784131.99635904468596,1432582.86961076897569,0.0],[784187.750208794139326,1432544.872332296334207,0.0],[784192.122868334525265,1432541.994608815060928,0.0],[784278.127875766949728,1432478.502832683734596,0.0],[784339.746369181666523,1432433.00493251811713,0.0],[784354.932669098256156,1432421.747238922398537,0.0],[784364.441983920638449,1432413.497793167596683,0.0],[784372.374865944264457,1432406.505260932259262,0.0],[784406.067066609626636,1432376.87257847446017,0.0],[784471.564662120537832,1432319.503091364400461,0.0],[784473.998279411578551,1432317.247584521770477,0.0],[784487.939154064049944,1432304.626597479917109,0.0],[784521.938823738601059,1432273.624451151816174,0.0],[784563.436025062575936,1432235.74714096961543,0.0],[784528.438930684933439,1432208.376727468334138,0.0],[784469.754663505475037,1432162.497548050712794,0.0],[784423.878506099106744,1432125.506411627633497,0.0],[784407.434076603967696,1432112.252791343024001,0.0],[784385.684014845173806,1432094.372786466032267,0.0],[784368.067487377906218,1432080.000158577458933,0.0],[784302.186829818878323,1432014.752288079122081,0.0],[784298.906675892416388,1432010.611620890675113,0.0],[784250.247743674786761,1431949.503571801586077,0.0],[784189.934296328341588,1431855.873771901009604,0.0],[784175.746401029638946,1431829.00496763153933,0.0],[784154.372835196554661,1431781.748759130481631,0.0],[784121.940829538856633,1431707.379124651430175,0.0],[784187.434822231880389,1431667.377909869654104,0.0],[784284.185453133191913,1431608.744814285309985,0.0],[784310.321001777192578,1431592.883278938243166,0.0],[784343.067022836883552,1431573.004587118513882,0.0],[784376.872821251512505,1431552.494712093146518,0.0],[784429.821302091702819,1431520.391276838257909,0.0],[784494.559518812107854,1431481.12456785235554,0.0],[784525.941312143113464,1431525.494747697841376,0.0],[784563.499213319271803,1431501.248580159852281,0.0],[784593.623530662618577,1431481.874613554216921,0.0],[784617.057743841782212,1431466.87122398102656,0.0],[784675.62412427039817,1431429.124607617268339,0.0],[784723.936265053111129,1431398.125364624429494,0.0],[784723.786420927150175,1431397.913492660969496,0.0],[784696.12752042664215,1431358.994596804026514,0.0],[784639.872348122764379,1431239.124698878033087,0.0],[784621.100500324624591,1431195.470450663473457,0.0],[784606.754901309963316,1431157.496360860299319,0.0],[784537.439154292689636,1430973.75057944864966,0.0],[784503.119717499008402,1430881.128526620799676,0.0],[784453.500653590075672,1430747.124325138516724,0.0],[784415.124709820607677,1430643.379672149894759,0.0],[784396.559401295729913,1430593.251791071612388,0.0],[784389.870209154672921,1430575.2495406139642,0.0],[784376.433650532271713,1430539.620842064265162,0.0],[784328.374636878725141,1430411.123945431550965,0.0],[784320.810893901041709,1430390.500210497528315,0.0],[784304.378111936617643,1430365.379750409396365,0.0],[784288.623605901491828,1430350.37334396969527,0.0],[784313.997980761807412,1430311.378135869512334,0.0],[784320.31342083029449,1430310.745360693661496,0.0],[784316.495557617396116,1430270.001138258259743,0.0],[784331.374150190269575,1430266.622045908588916,0.0],[784354.753902531694621,1430261.24879073863849,0.0],[784400.755303139332682,1430214.250701909419149,0.0],[784406.851303046685643,1430205.357317307963967,0.0],[784379.638732935185544,1430187.355300045805052,0.0],[784386.245531713007949,1430170.994749678997323,0.0],[784407.764657486462966,1430137.362364871194586,0.0],[784426.83430859609507,1430107.524129929021001,0.0],[784382.911203341907822,1430084.081618844764307,0.0],[784322.626098387874663,1430051.914459376130253,0.0],[784313.780943142483011,1430047.19658858096227,0.0],[784293.434825400123373,1430083.996046177344397,0.0],[784292.560332015622407,1430083.500007874099538,0.0],[784271.066229744814336,1430072.2541301373858,0.0],[784213.248079084092751,1430042.005486417328939,0.0],[784227.531086837407202,1430019.369154867017642,0.0],[784250.246950215427205,1429983.379889352247119,0.0],[784259.37436601636,1429969.004531803773716,0.0],[784311.064622097183019,1429887.126892536412925,0.0],[784312.752941504586488,1429884.498391407774761,0.0],[784324.065657470840961,1429863.503284398000687,0.0],[784401.429814761737362,1429912.893301771953702,0.0],[784502.808597039664164,1429977.629280380671844,0.0],[784504.815566662000492,1429978.878627229947597,0.0],[784593.140014553908259,1430035.278310741763562,0.0],[784618.934968572342768,1430051.749386994866654,0.0],[784619.562225241679698,1430051.999358480330557,0.0],[784723.495862022042274,1430087.747443848988041,0.0],[784728.1824186576996,1430089.245679622050375,0.0],[784816.628345040720887,1430109.370297646848485,0.0],[784884.360557291423902,1430124.755053790519014,0.0],[785041.644144135760143,1430160.453853751765564,0.0],[785249.629473853507079,1430207.622748869704083,0.0],[785273.810938102193177,1430213.040905709378421,0.0],[785278.05774973530788,1430214.00335474871099,0.0],[785306.620006981072947,1430212.625098892953247,0.0],[785326.249557873583399,1430216.125672155292705,0.0],[785363.689550246228464,1430222.621081951074302,0.0],[785526.813874539453536,1430250.998977760551497,0.0],[785551.191939579090104,1430255.245962973451242,0.0],[785605.617686964571476,1430264.672853349940851,0.0],[785619.058796352474019,1430267.00298549933359,0.0],[785641.062638483359478,1430270.871391207678244,0.0],[785768.503386262920685,1430293.005531505215913,0.0],[785813.628130993340164,1430300.875883111264557,0.0],[786098.187181246932596,1430350.378472770098597,0.0],[786111.183884736034088,1430352.626789297442883,0.0],[786125.438117340090685,1430348.755091399885714,0.0],[786180.376129950280301,1430333.745110266143456,0.0],[786182.064334782538936,1430333.253268473548815,0.0],[786196.126736842445098,1430325.870322371134534,0.0],[786233.192478023935109,1430306.50275156321004,0.0],[786236.376968785771169,1430304.122229997767136,0.0],[786243.808171945041977,1430298.497575843706727,0.0],[786253.932532600359991,1430290.753028017003089,0.0],[786262.502083177212626,1430284.254480027593672,0.0],[786291.254109184956178,1430262.376875422429293,0.0],[786331.128583460114896,1430245.495976101141423,0.0],[786343.192700628889725,1430240.251210617832839,0.0],[786385.314468243392184,1430222.375068283639848,0.0],[786383.942381907720119,1430230.121253717690706,0.0],[786386.933042255695909,1430272.872661177767441,0.0],[786387.066334624076262,1430274.689576862612739,0.0],[786388.755015377188101,1430298.375448717270046,0.0],[786377.183253762545064,1430332.75142094027251,0.0],[786374.996781265130267,1430360.504444815916941,0.0],[786365.997040971647948,1430391.873652528505772,0.0],[786371.249741427134722,1430411.123840573243797,0.0],[786378.871520055923611,1430416.505139668239281,0.0],[786387.123475066502579,1430419.745286837685853,0.0],[786391.809155300958082,1430422.373002077685669,0.0],[786405.000483087962493,1430425.752653016010299,0.0],[786413.942396405385807,1430427.372578964335844,0.0],[786422.566021853126585,1430430.373022785410285,0.0],[786433.130207260488532,1430432.629627288552001,0.0],[786447.68762047344353,1430432.004841489251703,0.0],[786477.434570284909569,1430427.374275479232892,0.0],[786502.941081755096093,1430425.379028187366202,0.0],[786521.43278586724773,1430423.377856330946088,0.0],[786580.620100810774602,1430426.999674621736631,0.0],[786604.81481012632139,1430449.00266641844064,0.0],[786606.18703186349012,1430453.876730269752443,0.0],[786613.185974168591201,1430479.62120370962657,0.0],[786633.37166534923017,1430553.370176922064275,0.0],[786645.125050496659242,1430606.629403070546687,0.0],[786657.378376161912456,1430650.37326293066144,0.0],[786662.128041106741875,1430676.249538296135142,0.0],[786659.498878161073662,1430676.377381876111031,0.0],[786661.940940080676228,1430755.378830120665953,0.0],[786664.311370866256766,1430791.880274910712615,0.0],[786649.878701227949932,1430799.369845695095137,0.0],[786620.685699021676555,1430806.120316811604425,0.0],[786592.874265191843733,1430812.63045705598779,0.0],[786566.753162704640999,1430806.869931627996266,0.0],[786450.629412673646584,1430824.745928721269593,0.0],[786411.715468042413704,1430836.9979264724534,0.0],[786412.57221529004164,1430851.841075100004673,0.0],[786412.627883350127377,1430852.760490999557078,0.0],[786404.240083426120691,1430887.966338569298387,0.0],[786400.042383586987853,1430895.937991731800139,0.0],[786398.791620561853051,1430899.290484905010089,0.0],[786399.632395734777674,1430905.155389389023185,0.0],[786401.309204490855336,1430911.028918392723426,0.0],[786407.175868436694145,1430926.532620615791529,0.0],[786404.663484325516038,1430933.237494253320619,0.0],[786398.784776784013957,1430937.848549923393875,0.0],[786353.074839817476459,1430958.388620829675347,0.0],[786327.079693321487866,1430970.962141647003591,0.0],[786295.084251085296273,1431012.577812669798732,0.0],[786247.962703527184203,1431074.207739347824827,0.0],[786238.160742855048738,1431097.044471643865108,0.0],[786223.472569714183919,1431127.236898296279833,0.0],[786211.26486960623879,1431143.284832600969821,0.0],[786145.933167033013888,1431229.203661970095709,0.0],[786037.104726652381942,1431352.833776634652168,0.0],[785982.289944598334841,1431415.093144349986687,0.0],[785947.24951534694992,1431410.879609903087839,0.0],[785928.623102557496168,1431406.004947183653712,0.0],[785910.560127891600132,1431401.246806189417839,0.0],[785888.50184456910938,1431395.373698891606182,0.0],[785866.562742194277234,1431384.254497098037973,0.0],[785848.504632726195268,1431373.750945637235418,0.0],[785825.998675351263955,1431351.245638012420386,0.0],[785819.185863543185405,1431343.249116555787623,0.0],[785807.753672858700156,1431319.872613897547126,0.0],[785785.129340359591879,1431273.000333805568516,0.0],[785699.248125187819824,1431355.376124589005485,0.0],[785664.372484011342749,1431320.378096870612353,0.0],[785630.253347362624481,1431353.248983003664762,0.0],[785521.999160996754654,1431457.24772303388454,0.0],[785512.249536009971052,1431466.623605009168386,0.0],[785508.755384829244576,1431468.513891644310206,0.0],[785481.435903117526323,1431483.25525540090166,0.0],[785382.121934110531583,1431395.874367021024227,0.0],[785379.562022163532674,1431393.501140307169408,0.0],[785328.747139213373885,1431348.874612201936543,0.0],[785326.377261562505737,1431351.252502927789465,0.0],[785291.932172040222213,1431385.24953292007558,0.0],[785225.935629735002294,1431452.753107198746875,0.0],[785224.432596120750532,1431454.254289177712053,0.0],[785215.061959414277226,1431463.744852672331035,0.0],[785156.626846655854024,1431523.499543704325333,0.0],[785074.808818790828809,1431607.003373800544068,0.0]]]}}
]
}
